TDRS 3                  
1 19548U 88091B   26170.81195912 -.00000310  00000+0  00000+0 0  9998
2 19548  12.5995 340.9886 0038344 356.3647 174.1670  1.00272471125417
FLTSATCOM 8 (USA 46)    
1 20253U 89077A   26170.45257714 -.00000378  00000+0  00000+0 0  9991
2 20253  12.4210 351.1503 0004279  56.9215 148.2620  1.00276324260581
SKYNET 4C               
1 20776U 90079A   26162.20198485  .00000132  00000+0  00000+0 0  9995
2 20776  13.3424 349.8525 0002400  96.2313 279.5534  1.00274127130831
TDRS 5                  
1 21639U 91054B   26170.71713344  .00000073  00000+0  00000+0 0  9994
2 21639  14.0708 353.7634 0006256 275.2427  89.4378  1.00275601127744
TDRS 6                  
1 22314U 93003B   26170.86988913 -.00000307  00000+0  00000+0 0  9994
2 22314  14.1828 357.0388 0008195 178.4571 359.9310  1.00270406122430
UFO 2 (USA 95)          
1 22787U 93056A   26170.71989071  .00000114  00000+0  00000+0 0  9991
2 22787  11.8960   3.5410 0005090   9.3291 182.8796  1.00269945118573
USA 99 (MILSTAR-1 1)    
1 22988U 94009A   26170.85322421 -.00000236  00000+0  00000+0 0  9994
2 22988  17.6313  27.6798 0000849 225.3426 312.3366  0.98724155 32972
UFO 4 (USA 108)         
1 23467U 95003A   26170.78448566 -.00000033  00000+0  00000+0 0  9998
2 23467   9.6899  13.2203 0003092  71.2722 278.1042  1.00272601114976
TDRS 7                  
1 23613U 95035B   26169.98372133 -.00000246  00000+0  00000+0 0  9998
2 23613  13.3764 348.1777 0010962  79.4988 282.4658  1.00264006113279
USA 115 (MILSTAR-1 2)   
1 23712U 95060A   26170.51799536 -.00000207  00000+0  00000+0 0  9994
2 23712  14.0738   3.7344 0001564 136.5365 220.5006  1.00364396 32907
INMARSAT 3-F1           
1 23839U 96020A   26170.24489147 -.00000116  00000+0  00000+0 0  9994
2 23839  10.6050  46.6157 0003783  54.8356 156.8419  0.99978366110272
INMARSAT 3-F2           
1 24307U 96053A   26170.61010590 -.00000285  00000+0  00000+0 0  9991
2 24307   9.8621  53.9119 0006625  32.2079 188.3813  1.00002513108940
INMARSAT 3-F3           
1 24674U 96070A   26170.75828734  .00000126  00000+0  00000+0 0  9992
2 24674  10.3234  49.6287 0003270  29.2185 141.9547  0.99983532107932
AMC-3                   
1 24936U 97050A   26170.36850138  .00000043  00000+0  00000+0 0  9990
2 24936   8.1707  63.9630 0004220  28.3089 168.1286  0.99062730 52458
USA 134                 
1 25019U 97065A   26170.37286248 -.00000074  00000+0  00000+0 0  9990
2 25019  12.7872  21.7093 0003392 338.7861 289.0174  1.00268909 32978
INMARSAT 3-F5           
1 25153U 98006B   26170.09799882 -.00000301  00000+0  00000+0 0  9990
2 25153   9.6979  53.2429 0004884  44.3372 150.9888  1.00275064103918
ABS-6                   
1 25924U 99053A   26170.78188566 -.00000125  00000+0  00000+0 0  9990
2 25924   0.0156 306.7534 0003546 147.5761 254.1701  1.00271012 97867
UFO 10 (USA 146)        
1 25967U 99063A   26170.38939589 -.00000199  00000+0  00000+0 0  9994
2 25967   9.8870  27.1862 0001865  46.5810 311.0888  1.00270478 97366
ASIASTAR                
1 26107U 00016A   26169.68061122 -.00000343  00000+0  00000+0 0  9992
2 26107   9.1339  58.1396 0004546  29.6208 169.1507  1.00268125 95931
USA 149 (DSP 20)        
1 26356U 00024A   26170.78890568  .00000083  00000+0  00000+0 0  9994
2 26356  13.1728  11.8373 0001972 314.8694  59.9505  1.00276168 32945
TDRS 8                  
1 26388U 00034A   26169.67837176 -.00000200  00000+0  00000+0 0  9994
2 26388  12.6831  31.3083 0006218  64.6375 139.7440  1.00248731 95194
NSS-11                  
1 26554U 00059A   26170.78526567  .00000019  00000+0  00000+0 0  9996
2 26554   2.1343  81.3607 0002886 357.9159 287.4169  1.00272107 41311
USA 153                 
1 26575U 00065A   26170.79469750 -.00000335  00000+0  00000+0 0  9999
2 26575  11.6293  35.4010 0002994  47.0413 246.1317  1.00269130 32950
AMC-6                   
1 26580U 00067A   26170.72354681  .00000083  00000+0  00000+0 0  9995
2 26580   0.1597  83.1380 0003543  13.4158 296.8294  1.00269823 93918
USA 157 (MILSTAR-2 2)   
1 26715U 01009A   26170.72068678  .00000099  00000+0  00000+0 0  9997
2 26715  11.5459  19.7527 0039242 177.5066 180.1028  1.00276174 32969
INTELSAT 902 (IS-902)   
1 26900U 01039A   26170.52657541 -.00000291  00000+0  00000+0 0  9992
2 26900   6.1228  71.7552 0004288  13.6094 321.8523  1.00271168 90717
USA 164 (MILSTAR-2 3)   
1 27168U 02001A   26168.80294760  .00000088  00000+0  00000+0 0  9990
2 27168  11.1806  21.9069 0099044   8.4150 183.8658  1.00277966 32961
INTELSAT 904 (IS-904)   
1 27380U 02007A   26170.10252515 -.00000234  00000+0  00000+0 0  9994
2 27380   6.9257  69.1626 0006550   6.6050 196.9688  1.00270224 51780
DIRECTV 5 (TEMPO 1)     
1 27426U 02023A   26170.61977353 -.00000064  00000+0  00000+0 0  9994
2 27426   4.8851  75.2808 0003196  15.0596 290.5055  1.00271833 88146
INTELSAT 905 (IS-905)   
1 27438U 02027A   26170.79445240  .00000086  00000+0  00000+0 0  9998
2 27438   6.7611  69.7702 0003944  23.1204 323.9079  1.00272608 51386
GALAXY 3C (G-3C)        
1 27445U 02030A   26170.80285910 -.00000159  00000+0  00000+0 0  9990
2 27445   3.7398  77.9431 0001650  28.6786 355.5790  1.00271482 46520
